[{"OBJECT_NAME":"STARLINK-3872","OBJECT_ID":"2022-049C","EPOCH":"2026-01-20T21:06:04.367808","MEAN_MOTION":15.08870748,"ECCENTRICITY":0.00013662,"INCLINATION":53.216,"RA_OF_ASC_NODE":283.7533,"ARG_OF_PERICENTER":88.1441,"MEAN_ANOMALY":271.9708,"EPHEMERIS_TYPE":0,"CLASSIFICATION_TYPE":"U","NORAD_CAT_ID":52453,"ELEMENT_SET_NO":999,"REV_AT_EPOCH":20489,"BSTAR":0.00058538285,"MEAN_MOTION_DOT":9.048e-5,"MEAN_MOTION_DDOT":0},{"OBJECT_NAME":"STARLINK-3888","OBJECT_ID":"2022-049D","EPOCH":"2026-01-20T22:46:45.180192","MEAN_MOTION":15.0885569,"ECCENTRICITY":0.0001315,"INCLINATION":53.2195,"RA_OF_ASC_NODE":283.4401,"ARG_OF_PERICENTER":95.5185,"MEAN_ANOMALY":264.5957,"EPHEMERIS_TYPE":0,"CLASSIFICATION_TYPE":"U","NORAD_CAT_ID":52454,"ELEMENT_SET_NO":999,"REV_AT_EPOCH":20490,"BSTAR":0.00013288215,"MEAN_MOTION_DOT":1.828e-5,"MEAN_MOTION_DDOT":0},{"OBJECT_NAME":"STARLINK-3890","OBJECT_ID":"2022-049E","EPOCH":"2026-01-20T22:37:31.990368","MEAN_MOTION":15.08871601,"ECCENTRICITY":0.00010855,"INCLINATION":53.2175,"RA_OF_ASC_NODE":283.4693,"ARG_OF_PERICENTER":79.7628,"MEAN_ANOMALY":280.3487,"EPHEMERIS_TYPE":0,"CLASSIFICATION_TYPE":"U","NORAD_CAT_ID":52455,"ELEMENT_SET_NO":999,"REV_AT_EPOCH":20490,"BSTAR":0.00049484698,"MEAN_MOTION_DOT":7.603e-5,"MEAN_MOTION_DDOT":0},{"OBJECT_NAME":"STARLINK-3896","OBJECT_ID":"2022-049F","EPOCH":"2026-01-20T22:32:15.756864","MEAN_MOTION":15.08825641,"ECCENTRICITY":8.212e-5,"INCLINATION":53.2169,"RA_OF_ASC_NODE":283.4846,"ARG_OF_PERICENTER":71.9373,"MEAN_ANOMALY":288.1708,"EPHEMERIS_TYPE":0,"CLASSIFICATION_TYPE":"U","NORAD_CAT_ID":52456,"ELEMENT_SET_NO":999,"REV_AT_EPOCH":20490,"BSTAR":-0.00027474837,"MEAN_MOTION_DOT":-4.656e-5,"MEAN_MOTION_DDOT":0},{"OBJECT_NAME":"STARLINK-3899","OBJECT_ID":"2022-049G","EPOCH":"2026-01-20T22:25:34.850496","MEAN_MOTION":15.08837443,"ECCENTRICITY":0.00015346,"INCLINATION":53.2177,"RA_OF_ASC_NODE":283.4954,"ARG_OF_PERICENTER":88.7866,"MEAN_ANOMALY":271.3302,"EPHEMERIS_TYPE":0,"CLASSIFICATION_TYPE":"U","NORAD_CAT_ID":52457,"ELEMENT_SET_NO":999,"REV_AT_EPOCH":20490,"BSTAR":-5.8344714e-5,"MEAN_MOTION_DOT":-1.216e-5,"MEAN_MOTION_DDOT":0},{"OBJECT_NAME":"STARLINK-3898","OBJECT_ID":"2022-049H","EPOCH":"2026-01-20T22:21:42.883776","MEAN_MOTION":15.08793676,"ECCENTRICITY":0.00019648,"INCLINATION":53.2172,"RA_OF_ASC_NODE":283.5171,"ARG_OF_PERICENTER":13.5594,"MEAN_ANOMALY":346.545,"EPHEMERIS_TYPE":0,"CLASSIFICATION_TYPE":"U","NORAD_CAT_ID":52458,"ELEMENT_SET_NO":999,"REV_AT_EPOCH":20490,"BSTAR":-0.00037566426,"MEAN_MOTION_DOT":-6.254e-5,"MEAN_MOTION_DDOT":0},{"OBJECT_NAME":"STARLINK-3856","OBJECT_ID":"2022-049J","EPOCH":"2026-01-20T23:35:49.102080","MEAN_MOTION":15.08808886,"ECCENTRICITY":0.00011132,"INCLINATION":53.2165,"RA_OF_ASC_NODE":273.2859,"ARG_OF_PERICENTER":101.8747,"MEAN_ANOMALY":258.237,"EPHEMERIS_TYPE":0,"CLASSIFICATION_TYPE":"U","NORAD_CAT_ID":52459,"ELEMENT_SET_NO":999,"REV_AT_EPOCH":20504,"BSTAR":-0.00038349787,"MEAN_MOTION_DOT":-6.381e-5,"MEAN_MOTION_DDOT":0},{"OBJECT_NAME":"STARLINK-3900","OBJECT_ID":"2022-049L","EPOCH":"2026-01-20T23:31:50.061792","MEAN_MOTION":15.08815516,"ECCENTRICITY":0.0001409,"INCLINATION":53.2148,"RA_OF_ASC_NODE":263.2968,"ARG_OF_PERICENTER":78.8039,"MEAN_ANOMALY":281.3112,"EPHEMERIS_TYPE":0,"CLASSIFICATION_TYPE":"U","NORAD_CAT_ID":52461,"ELEMENT_SET_NO":999,"REV_AT_EPOCH":20518,"BSTAR":-0.00064965009,"MEAN_MOTION_DOT":-0.00010605,"MEAN_MOTION_DDOT":0},{"OBJECT_NAME":"STARLINK-3903","OBJECT_ID":"2022-049M","EPOCH":"2026-01-20T23:26:36.167136","MEAN_MOTION":15.08803426,"ECCENTRICITY":0.00011851,"INCLINATION":53.2164,"RA_OF_ASC_NODE":273.3254,"ARG_OF_PERICENTER":94.7051,"MEAN_ANOMALY":265.4077,"EPHEMERIS_TYPE":0,"CLASSIFICATION_TYPE":"U","NORAD_CAT_ID":52462,"ELEMENT_SET_NO":999,"REV_AT_EPOCH":20504,"BSTAR":-0.00052559047,"MEAN_MOTION_DOT":-8.634e-5,"MEAN_MOTION_DDOT":0},{"OBJECT_NAME":"STARLINK-3885","OBJECT_ID":"2022-049N","EPOCH":"2026-01-20T23:26:33.758304","MEAN_MOTION":15.08812521,"ECCENTRICITY":0.00015848,"INCLINATION":53.2175,"RA_OF_ASC_NODE":263.3156,"ARG_OF_PERICENTER":88.1207,"MEAN_ANOMALY":271.9967,"EPHEMERIS_TYPE":0,"CLASSIFICATION_TYPE":"U","NORAD_CAT_ID":52463,"ELEMENT_SET_NO":999,"REV_AT_EPOCH":20518,"BSTAR":-0.00014368929,"MEAN_MOTION_DOT":-2.572e-5,"MEAN_MOTION_DDOT":0},{"OBJECT_NAME":"STARLINK-3904","OBJECT_ID":"2022-049P","EPOCH":"2026-01-20T23:30:31.383360","MEAN_MOTION":15.08811451,"ECCENTRICITY":0.00013473,"INCLINATION":53.2185,"RA_OF_ASC_NODE":273.3027,"ARG_OF_PERICENTER":78.7634,"MEAN_ANOMALY":281.3509,"EPHEMERIS_TYPE":0,"CLASSIFICATION_TYPE":"U","NORAD_CAT_ID":52464,"ELEMENT_SET_NO":999,"REV_AT_EPOCH":20504,"BSTAR":-0.00016569464,"MEAN_MOTION_DOT":-2.922e-5,"MEAN_MOTION_DDOT":0},{"OBJECT_NAME":"STARLINK-3863","OBJECT_ID":"2022-049Q","EPOCH":"2026-01-20T23:21:15.610176","MEAN_MOTION":15.08811574,"ECCENTRICITY":0.00012873,"INCLINATION":53.2167,"RA_OF_ASC_NODE":263.3329,"ARG_OF_PERICENTER":90.3904,"MEAN_ANOMALY":269.7236,"EPHEMERIS_TYPE":0,"CLASSIFICATION_TYPE":"U","NORAD_CAT_ID":52465,"ELEMENT_SET_NO":999,"REV_AT_EPOCH":20518,"BSTAR":-0.0001996491,"MEAN_MOTION_DOT":-3.461e-5,"MEAN_MOTION_DDOT":0},{"OBJECT_NAME":"STARLINK-3873","OBJECT_ID":"2022-049S","EPOCH":"2026-01-20T23:19:55.082784","MEAN_MOTION":15.08811611,"ECCENTRICITY":0.00013122,"INCLINATION":53.2166,"RA_OF_ASC_NODE":273.3361,"ARG_OF_PERICENTER":95.8039,"MEAN_ANOMALY":264.3102,"EPHEMERIS_TYPE":0,"CLASSIFICATION_TYPE":"U","NORAD_CAT_ID":52467,"ELEMENT_SET_NO":999,"REV_AT_EPOCH":20504,"BSTAR":-0.00048767276,"MEAN_MOTION_DOT":-8.035e-5,"MEAN_MOTION_DDOT":0},{"OBJECT_NAME":"STARLINK-3864","OBJECT_ID":"2022-049T","EPOCH":"2026-01-20T22:58:43.233312","MEAN_MOTION":15.08815096,"ECCENTRICITY":0.00015969,"INCLINATION":53.2166,"RA_OF_ASC_NODE":273.4007,"ARG_OF_PERICENTER":70.172,"MEAN_ANOMALY":289.9444,"EPHEMERIS_TYPE":0,"CLASSIFICATION_TYPE":"U","NORAD_CAT_ID":52468,"ELEMENT_SET_NO":999,"REV_AT_EPOCH":20504,"BSTAR":-0.00043524062,"MEAN_MOTION_DOT":-7.203e-5,"MEAN_MOTION_DDOT":0},{"OBJECT_NAME":"STARLINK-3828","OBJECT_ID":"2022-049U","EPOCH":"2026-01-20T23:09:20.005632","MEAN_MOTION":15.08807941,"ECCENTRICITY":0.00013066,"INCLINATION":53.2166,"RA_OF_ASC_NODE":273.3732,"ARG_OF_PERICENTER":105.3013,"MEAN_ANOMALY":254.8123,"EPHEMERIS_TYPE":0,"CLASSIFICATION_TYPE":"U","NORAD_CAT_ID":52469,"ELEMENT_SET_NO":999,"REV_AT_EPOCH":20504,"BSTAR":-0.00037796319,"MEAN_MOTION_DOT":-6.293e-5,"MEAN_MOTION_DDOT":0},{"OBJECT_NAME":"STARLINK-3859","OBJECT_ID":"2022-049V","EPOCH":"2026-01-20T22:48:08.725536","MEAN_MOTION":15.08805561,"ECCENTRICITY":0.00012413,"INCLINATION":53.2169,"RA_OF_ASC_NODE":273.4313,"ARG_OF_PERICENTER":73.7865,"MEAN_ANOMALY":286.3264,"EPHEMERIS_TYPE":0,"CLASSIFICATION_TYPE":"U","NORAD_CAT_ID":52470,"ELEMENT_SET_NO":999,"REV_AT_EPOCH":20504,"BSTAR":-0.00022427761,"MEAN_MOTION_DOT":-3.852e-5,"MEAN_MOTION_DDOT":0}]
