STARLINK-3872           
1 52453U 22049C   26020.87921722  .00009048  00000+0  58538-3 0  9996
2 52453  53.2160 283.7533 0001366  88.1441 271.9708 15.08870748204896
STARLINK-3888           
1 52454U 22049D   26020.94913403  .00001828  00000+0  13288-3 0  9993
2 52454  53.2195 283.4401 0001315  95.5185 264.5957 15.08855690204902
STARLINK-3890           
1 52455U 22049E   26020.94273137  .00007603  00000+0  49485-3 0  9992
2 52455  53.2175 283.4693 0001085  79.7628 280.3487 15.08871601204908
STARLINK-3896           
1 52456U 22049F   26020.93907126 -.00004656  00000+0 -27475-3 0  9996
2 52456  53.2169 283.4846 0000821  71.9373 288.1708 15.08825641204905
STARLINK-3899           
1 52457U 22049G   26020.93443114 -.00001216  00000+0 -58345-4 0  9999
2 52457  53.2177 283.4954 0001534  88.7866 271.3302 15.08837443204907
STARLINK-3898           
1 52458U 22049H   26020.93174634 -.00006254  00000+0 -37566-3 0  9996
2 52458  53.2172 283.5171 0001964  13.5594 346.5450 15.08793676204904
STARLINK-3856           
1 52459U 22049J   26020.98320720 -.00006381  00000+0 -38350-3 0  9994
2 52459  53.2165 273.2859 0001113 101.8747 258.2370 15.08808886205049
STARLINK-3900           
1 52461U 22049L   26020.98044053 -.00010605  00000+0 -64965-3 0  9994
2 52461  53.2148 263.2968 0001409  78.8039 281.3112 15.08815516205182
STARLINK-3903           
1 52462U 22049M   26020.97680749 -.00008634  00000+0 -52559-3 0  9997
2 52462  53.2164 273.3254 0001185  94.7051 265.4077 15.08803426205048
STARLINK-3885           
1 52463U 22049N   26020.97677961 -.00002572  00000+0 -14369-3 0  9992
2 52463  53.2175 263.3156 0001584  88.1207 271.9967 15.08812521205185
STARLINK-3904           
1 52464U 22049P   26020.97952990 -.00002922  00000+0 -16569-3 0  9994
2 52464  53.2185 273.3027 0001347  78.7634 281.3509 15.08811451205044
STARLINK-3863           
1 52465U 22049Q   26020.97309734 -.00003461  00000+0 -19965-3 0  9999
2 52465  53.2167 263.3329 0001287  90.3904 269.7236 15.08811574205180
STARLINK-3873           
1 52467U 22049S   26020.97216531 -.00008035  00000+0 -48767-3 0  9997
2 52467  53.2166 273.3361 0001312  95.8039 264.3102 15.08811611205046
STARLINK-3864           
1 52468U 22049T   26020.95744483 -.00007203  00000+0 -43524-3 0  9990
2 52468  53.2166 273.4007 0001596  70.1720 289.9444 15.08815096205045
STARLINK-3828           
1 52469U 22049U   26020.96481488 -.00006293  00000+0 -37796-3 0  9997
2 52469  53.2166 273.3732 0001306 105.3013 254.8123 15.08807941205040
STARLINK-3859           
1 52470U 22049V   26020.95010099 -.00003852  00000+0 -22428-3 0  9998
2 52470  53.2169 273.4313 0001241  73.7865 286.3264 15.08805561205044
